SL-16 R/B               
1 22803U 93059B   26070.87666574 -.00000098  00000+0 -24707-4 0  9997
2 22803  70.9928   6.5141 0018429 213.3890 146.6073 14.17231362679840
ARIANE 40 R/B           
1 22830U 93061H   26070.72365748  .00000235  00000+0  10188-3 0  9991
2 22830  98.4911 139.5711 0009568 278.3733  81.6366 14.32862203694399
COSMOS 2278             
1 23087U 94023A   26070.71941899  .00000032  00000+0  41154-4 0  9994
2 23087  71.0553 170.8514 0008181   9.1686 350.9585 14.14379421645092
SL-16 R/B               
1 23088U 94023B   26070.41151177 -.00000234  00000+0 -96041-4 0  9995
2 23088  70.9985  67.2706 0005703 284.1137  75.9352 14.15011232646333
SL-16 R/B               
1 23343U 94074B   26070.62936294  .00000568  00000+0  82811-4 0  9997
2 23343  97.7108 101.3685 0005934 203.2077 269.9962 14.79410491687537
SL-16 R/B               
1 23405U 94077B   26070.88712385  .00000078  00000+0  64543-4 0  9998
2 23405  70.9853 347.8666 0002979 209.2066 150.8890 14.15561529616542
ARIANE 40+ R/B          
1 23561U 95021B   26070.84266054  .00000316  00000+0  11476-3 0  9995
2 23561  98.4492 142.2959 0007707 130.7994 344.5912 14.39774100619551
SL-16 R/B               
1 23705U 95058B   26070.61155650  .00000333  00000+0  19437-3 0  9993
2 23705  71.0223 176.2205 0010703 122.2935 237.9226 14.15496639568123
SL-16 R/B               
1 24298U 96051B   26070.72406866  .00000087  00000+0  73872-4 0  9995
2 24298  70.7603 170.9329 0014910 144.9408 215.2696 14.12416227521937
ORBVIEW 2 (SEASTAR)     
1 24883U 97037A   26070.43925029  .00000354  00000+0  13915-3 0  9993
2 24883  98.8571 234.7974 0003052  68.2982 291.8527 14.35496357508729
SL-16 R/B               
1 25400U 98043G   26070.83649823  .00000079  00000+0  51875-4 0  9998
2 25400  98.8255  24.2151 0010109  14.4580 345.6887 14.26050331439291
SL-16 R/B               
1 25407U 98045B   26070.69217325  .00000268  00000+0  15923-3 0  9992
2 25407  71.0120 177.3630 0006856   5.2002 354.9192 14.16191002427384
ISS (ZARYA)             
1 25544U 98067A   26070.83651153  .00008338  00000+0  16153-3 0  9997
2 25544  51.6324  61.7417 0007973 182.2925 177.8028 15.48586968556665
CZ-4B R/B               
1 25732U 99025C   26070.58257740  .00000041  00000+0  40872-4 0  9996
2 25732  98.6623 114.8193 0036649 341.1164 142.9114 14.18265660388437
OKEAN-O                 
1 25860U 99039A   26070.74736684  .00000792  00000+0  11076-3 0  9996
2 25860  97.9438 130.6180 0001193  70.3390 289.7951 14.80338935434699
SL-16 R/B               
1 25861U 99039B   26070.72529147  .00000693  00000+0  94634-4 0  9991
2 25861  97.9963 129.8191 0013566 248.7395 111.2369 14.81734882437167
DELTA 2 R/B             
1 25876U 99041E   26070.77791753  .00001347  00000+0  25495-3 0  9994
2 25876  51.7626 292.9397 0502425 354.5888   4.9735 14.11844583363321
