[{"OBJECT_NAME":"SL-16 R/B","OBJECT_ID":"1993-059B","EPOCH":"2026-03-11T21:02:23.919936","MEAN_MOTION":14.17231362,"ECCENTRICITY":0.0018429,"INCLINATION":70.9928,"RA_OF_ASC_NODE":6.5141,"ARG_OF_PERICENTER":213.389,"MEAN_ANOMALY":146.6073,"EPHEMERIS_TYPE":0,"CLASSIFICATION_TYPE":"U","NORAD_CAT_ID":22803,"ELEMENT_SET_NO":999,"REV_AT_EPOCH":67984,"BSTAR":-2.4707e-5,"MEAN_MOTION_DOT":-9.8e-7,"MEAN_MOTION_DDOT":0},{"OBJECT_NAME":"ARIANE 40 R/B","OBJECT_ID":"1993-061H","EPOCH":"2026-03-11T17:22:04.006272","MEAN_MOTION":14.32862203,"ECCENTRICITY":0.0009568,"INCLINATION":98.4911,"RA_OF_ASC_NODE":139.5711,"ARG_OF_PERICENTER":278.3733,"MEAN_ANOMALY":81.6366,"EPHEMERIS_TYPE":0,"CLASSIFICATION_TYPE":"U","NORAD_CAT_ID":22830,"ELEMENT_SET_NO":999,"REV_AT_EPOCH":69439,"BSTAR":0.00010188,"MEAN_MOTION_DOT":2.35e-6,"MEAN_MOTION_DDOT":0},{"OBJECT_NAME":"COSMOS 2278","OBJECT_ID":"1994-023A","EPOCH":"2026-03-11T17:15:57.800736","MEAN_MOTION":14.14379421,"ECCENTRICITY":0.0008181,"INCLINATION":71.0553,"RA_OF_ASC_NODE":170.8514,"ARG_OF_PERICENTER":9.1686,"MEAN_ANOMALY":350.9585,"EPHEMERIS_TYPE":0,"CLASSIFICATION_TYPE":"U","NORAD_CAT_ID":23087,"ELEMENT_SET_NO":999,"REV_AT_EPOCH":64509,"BSTAR":4.1154e-5,"MEAN_MOTION_DOT":3.2e-7,"MEAN_MOTION_DDOT":0},{"OBJECT_NAME":"SL-16 R/B","OBJECT_ID":"1994-023B","EPOCH":"2026-03-11T09:52:34.616928","MEAN_MOTION":14.15011232,"ECCENTRICITY":0.0005703,"INCLINATION":70.9985,"RA_OF_ASC_NODE":67.2706,"ARG_OF_PERICENTER":284.1137,"MEAN_ANOMALY":75.9352,"EPHEMERIS_TYPE":0,"CLASSIFICATION_TYPE":"U","NORAD_CAT_ID":23088,"ELEMENT_SET_NO":999,"REV_AT_EPOCH":64633,"BSTAR":-9.6041e-5,"MEAN_MOTION_DOT":-2.34e-6,"MEAN_MOTION_DDOT":0},{"OBJECT_NAME":"SL-16 R/B","OBJECT_ID":"1994-074B","EPOCH":"2026-03-11T15:06:16.958016","MEAN_MOTION":14.79410491,"ECCENTRICITY":0.0005934,"INCLINATION":97.7108,"RA_OF_ASC_NODE":101.3685,"ARG_OF_PERICENTER":203.2077,"MEAN_ANOMALY":269.9962,"EPHEMERIS_TYPE":0,"CLASSIFICATION_TYPE":"U","NORAD_CAT_ID":23343,"ELEMENT_SET_NO":999,"REV_AT_EPOCH":68753,"BSTAR":8.2811e-5,"MEAN_MOTION_DOT":5.68e-6,"MEAN_MOTION_DDOT":0},{"OBJECT_NAME":"SL-16 R/B","OBJECT_ID":"1994-077B","EPOCH":"2026-03-11T21:17:27.500640","MEAN_MOTION":14.15561529,"ECCENTRICITY":0.0002979,"INCLINATION":70.9853,"RA_OF_ASC_NODE":347.8666,"ARG_OF_PERICENTER":209.2066,"MEAN_ANOMALY":150.889,"EPHEMERIS_TYPE":0,"CLASSIFICATION_TYPE":"U","NORAD_CAT_ID":23405,"ELEMENT_SET_NO":999,"REV_AT_EPOCH":61654,"BSTAR":6.4543e-5,"MEAN_MOTION_DOT":7.8e-7,"MEAN_MOTION_DDOT":0},{"OBJECT_NAME":"ARIANE 40+ R/B","OBJECT_ID":"1995-021B","EPOCH":"2026-03-11T20:13:25.870656","MEAN_MOTION":14.397741,"ECCENTRICITY":0.0007707,"INCLINATION":98.4492,"RA_OF_ASC_NODE":142.2959,"ARG_OF_PERICENTER":130.7994,"MEAN_ANOMALY":344.5912,"EPHEMERIS_TYPE":0,"CLASSIFICATION_TYPE":"U","NORAD_CAT_ID":23561,"ELEMENT_SET_NO":999,"REV_AT_EPOCH":61955,"BSTAR":0.00011476,"MEAN_MOTION_DOT":3.16e-6,"MEAN_MOTION_DDOT":0},{"OBJECT_NAME":"SL-16 R/B","OBJECT_ID":"1995-058B","EPOCH":"2026-03-11T14:40:38.481600","MEAN_MOTION":14.15496639,"ECCENTRICITY":0.0010703,"INCLINATION":71.0223,"RA_OF_ASC_NODE":176.2205,"ARG_OF_PERICENTER":122.2935,"MEAN_ANOMALY":237.9226,"EPHEMERIS_TYPE":0,"CLASSIFICATION_TYPE":"U","NORAD_CAT_ID":23705,"ELEMENT_SET_NO":999,"REV_AT_EPOCH":56812,"BSTAR":0.00019437,"MEAN_MOTION_DOT":3.33e-6,"MEAN_MOTION_DDOT":0},{"OBJECT_NAME":"SL-16 R/B","OBJECT_ID":"1996-051B","EPOCH":"2026-03-11T17:22:39.532224","MEAN_MOTION":14.12416227,"ECCENTRICITY":0.001491,"INCLINATION":70.7603,"RA_OF_ASC_NODE":170.9329,"ARG_OF_PERICENTER":144.9408,"MEAN_ANOMALY":215.2696,"EPHEMERIS_TYPE":0,"CLASSIFICATION_TYPE":"U","NORAD_CAT_ID":24298,"ELEMENT_SET_NO":999,"REV_AT_EPOCH":52193,"BSTAR":7.3872e-5,"MEAN_MOTION_DOT":8.7e-7,"MEAN_MOTION_DDOT":0},{"OBJECT_NAME":"ORBVIEW 2 (SEASTAR)","OBJECT_ID":"1997-037A","EPOCH":"2026-03-11T10:32:31.225056","MEAN_MOTION":14.35496357,"ECCENTRICITY":0.0003052,"INCLINATION":98.8571,"RA_OF_ASC_NODE":234.7974,"ARG_OF_PERICENTER":68.2982,"MEAN_ANOMALY":291.8527,"EPHEMERIS_TYPE":0,"CLASSIFICATION_TYPE":"U","NORAD_CAT_ID":24883,"ELEMENT_SET_NO":999,"REV_AT_EPOCH":50872,"BSTAR":0.00013915,"MEAN_MOTION_DOT":3.54e-6,"MEAN_MOTION_DDOT":0},{"OBJECT_NAME":"SL-16 R/B","OBJECT_ID":"1998-043G","EPOCH":"2026-03-11T20:04:33.447072","MEAN_MOTION":14.26050331,"ECCENTRICITY":0.0010109,"INCLINATION":98.8255,"RA_OF_ASC_NODE":24.2151,"ARG_OF_PERICENTER":14.458,"MEAN_ANOMALY":345.6887,"EPHEMERIS_TYPE":0,"CLASSIFICATION_TYPE":"U","NORAD_CAT_ID":25400,"ELEMENT_SET_NO":999,"REV_AT_EPOCH":43929,"BSTAR":5.1875e-5,"MEAN_MOTION_DOT":7.9e-7,"MEAN_MOTION_DDOT":0},{"OBJECT_NAME":"SL-16 R/B","OBJECT_ID":"1998-045B","EPOCH":"2026-03-11T16:36:43.768800","MEAN_MOTION":14.16191002,"ECCENTRICITY":0.0006856,"INCLINATION":71.012,"RA_OF_ASC_NODE":177.363,"ARG_OF_PERICENTER":5.2002,"MEAN_ANOMALY":354.9192,"EPHEMERIS_TYPE":0,"CLASSIFICATION_TYPE":"U","NORAD_CAT_ID":25407,"ELEMENT_SET_NO":999,"REV_AT_EPOCH":42738,"BSTAR":0.00015923,"MEAN_MOTION_DOT":2.68e-6,"MEAN_MOTION_DDOT":0},{"OBJECT_NAME":"ISS (ZARYA)","OBJECT_ID":"1998-067A","EPOCH":"2026-03-11T20:04:34.596192","MEAN_MOTION":15.48586968,"ECCENTRICITY":0.0007973,"INCLINATION":51.6324,"RA_OF_ASC_NODE":61.7417,"ARG_OF_PERICENTER":182.2925,"MEAN_ANOMALY":177.8028,"EPHEMERIS_TYPE":0,"CLASSIFICATION_TYPE":"U","NORAD_CAT_ID":25544,"ELEMENT_SET_NO":999,"REV_AT_EPOCH":55666,"BSTAR":0.00016153,"MEAN_MOTION_DOT":8.338e-5,"MEAN_MOTION_DDOT":0},{"OBJECT_NAME":"CZ-4B R/B","OBJECT_ID":"1999-025C","EPOCH":"2026-03-11T13:58:54.687360","MEAN_MOTION":14.1826566,"ECCENTRICITY":0.0036649,"INCLINATION":98.6623,"RA_OF_ASC_NODE":114.8193,"ARG_OF_PERICENTER":341.1164,"MEAN_ANOMALY":142.9114,"EPHEMERIS_TYPE":0,"CLASSIFICATION_TYPE":"U","NORAD_CAT_ID":25732,"ELEMENT_SET_NO":999,"REV_AT_EPOCH":38843,"BSTAR":4.0872e-5,"MEAN_MOTION_DOT":4.1e-7,"MEAN_MOTION_DDOT":0},{"OBJECT_NAME":"OKEAN-O","OBJECT_ID":"1999-039A","EPOCH":"2026-03-11T17:56:12.494976","MEAN_MOTION":14.80338935,"ECCENTRICITY":0.0001193,"INCLINATION":97.9438,"RA_OF_ASC_NODE":130.618,"ARG_OF_PERICENTER":70.339,"MEAN_ANOMALY":289.7951,"EPHEMERIS_TYPE":0,"CLASSIFICATION_TYPE":"U","NORAD_CAT_ID":25860,"ELEMENT_SET_NO":999,"REV_AT_EPOCH":43469,"BSTAR":0.00011076,"MEAN_MOTION_DOT":7.92e-6,"MEAN_MOTION_DDOT":0},{"OBJECT_NAME":"SL-16 R/B","OBJECT_ID":"1999-039B","EPOCH":"2026-03-11T17:24:25.183008","MEAN_MOTION":14.81734882,"ECCENTRICITY":0.0013566,"INCLINATION":97.9963,"RA_OF_ASC_NODE":129.8191,"ARG_OF_PERICENTER":248.7395,"MEAN_ANOMALY":111.2369,"EPHEMERIS_TYPE":0,"CLASSIFICATION_TYPE":"U","NORAD_CAT_ID":25861,"ELEMENT_SET_NO":999,"REV_AT_EPOCH":43716,"BSTAR":9.4634e-5,"MEAN_MOTION_DOT":6.93e-6,"MEAN_MOTION_DDOT":0},{"OBJECT_NAME":"DELTA 2 R/B","OBJECT_ID":"1999-041E","EPOCH":"2026-03-11T18:40:12.074592","MEAN_MOTION":14.11844583,"ECCENTRICITY":0.0502425,"INCLINATION":51.7626,"RA_OF_ASC_NODE":292.9397,"ARG_OF_PERICENTER":354.5888,"MEAN_ANOMALY":4.9735,"EPHEMERIS_TYPE":0,"CLASSIFICATION_TYPE":"U","NORAD_CAT_ID":25876,"ELEMENT_SET_NO":999,"REV_AT_EPOCH":36332,"BSTAR":0.00025495,"MEAN_MOTION_DOT":1.347e-5,"MEAN_MOTION_DDOT":0}]
